start=new Date('2022-10-27T00:00:00.000Z').valueOf();
sats=[{"GP_ID":"216266816","MEAN_MOTION_DDOT":"0.0000000000000","EPHEMERIS_TYPE":"0","MEAN_MOTION_DOT":"0.00001098","TLE_LINE1":"1 51758U 22016AW  22299.77826668  .00001098  00000-0  87135-4 0  9997","ECCENTRICITY":"0.00020230","CENTER_NAME":"EARTH","PERIOD":"95.438","OBJECT_ID":"2022-016AW","INCLINATION":"53.2202","REF_FRAME":"TEME","BSTAR":"0.00008713500000","NORAD_CAT_ID":"51758","OBJECT_NAME":"STARLINK-3458","EPOCH":"2022-10-26T18:40:42.241152","COUNTRY_CODE":"US","FILE":"3635100","ELEMENT_SET_NO":"999","MEAN_ANOMALY":"314.1798","PERIAPSIS":"538.379","DECAY_DATE":null,"APOAPSIS":"541.178","MEAN_MOTION":"15.08829153","TLE_LINE2":"2 51758  53.2202  70.4070 0002023  45.9361 314.1798 15.08829153 39170","MEAN_ELEMENT_THEORY":"SGP4","CLASSIFICATION_TYPE":"U","SITE":"AFETR","SEMIMAJOR_AXIS":"6917.914","ARG_OF_PERICENTER":"45.9361","TIME_SYSTEM":"UTC","RCS_SIZE":"LARGE","RA_OF_ASC_NODE":"70.4070","OBJECT_TYPE":"PAYLOAD","REV_AT_EPOCH":"3917","LAUNCH_DATE":"2022-02-21"},{"PERIAPSIS":"538.802","MEAN_ANOMALY":"305.6987","MEAN_ELEMENT_THEORY":"SGP4","TLE_LINE2":"2 51759  53.2200  71.0140 0001426  54.4138 305.6987 15.08825883 38010","MEAN_MOTION":"15.08825883","DECAY_DATE":null,"APOAPSIS":"540.775","ARG_OF_PERICENTER":"54.4138","SEMIMAJOR_AXIS":"6917.924","SITE":"AFETR","CLASSIFICATION_TYPE":"U","LAUNCH_DATE":"2022-02-21","REV_AT_EPOCH":"3801","RA_OF_ASC_NODE":"71.0140","RCS_SIZE":"LARGE","OBJECT_TYPE":"PAYLOAD","TIME_SYSTEM":"UTC","ECCENTRICITY":"0.00014260","TLE_LINE1":"1 51759U 22016AX  22299.64482794  .00005297  00000-0  35075-3 0  9992","MEAN_MOTION_DOT":"0.00005297","GP_ID":"216267059","EPHEMERIS_TYPE":"0","MEAN_MOTION_DDOT":"0.0000000000000","OBJECT_NAME":"STARLINK-3456","EPOCH":"2022-10-26T15:28:33.134016","NORAD_CAT_ID":"51759","REF_FRAME":"TEME","BSTAR":"0.00035075000000","PERIOD":"95.438","INCLINATION":"53.2200","OBJECT_ID":"2022-016AX","CENTER_NAME":"EARTH","FILE":"3635100","COUNTRY_CODE":"US","ELEMENT_SET_NO":"999"},{"APOAPSIS":"540.919","DECAY_DATE":null,"MEAN_ELEMENT_THEORY":"SGP4","TLE_LINE2":"2 51768  53.2175 100.5680 0001657  49.4052 310.7084 15.08830962 38360","MEAN_MOTION":"15.08830962","PERIAPSIS":"538.627","MEAN_ANOMALY":"310.7084","RCS_SIZE":"LARGE","RA_OF_ASC_NODE":"100.5680","OBJECT_TYPE":"PAYLOAD","TIME_SYSTEM":"UTC","LAUNCH_DATE":"2022-02-25","REV_AT_EPOCH":"3836","SITE":"AFWTR","CLASSIFICATION_TYPE":"U","ARG_OF_PERICENTER":"49.4052","SEMIMAJOR_AXIS":"6917.908","REF_FRAME":"TEME","BSTAR":"0.00001969500000","PERIOD":"95.438","INCLINATION":"53.2175","OBJECT_ID":"2022-017A","CENTER_NAME":"EARTH","OBJECT_NAME":"STARLINK-3622","EPOCH":"2022-10-26T17:47:39.326496","NORAD_CAT_ID":"51768","MEAN_MOTION_DOT":"0.00000025","GP_ID":"216265314","MEAN_MOTION_DDOT":"0.0000000000000","EPHEMERIS_TYPE":"0","ECCENTRICITY":"0.00016570","TLE_LINE1":"1 51768U 22017A   22299.74142739  .00000025  00000-0  19695-4 0  9991","ELEMENT_SET_NO":"999","FILE":"3635100","COUNTRY_CODE":"US"},{"FILE":"3635100","COUNTRY_CODE":"US","ELEMENT_SET_NO":"999","MEAN_MOTION_DOT":"0.00001172","GP_ID":"216265564","EPHEMERIS_TYPE":"0","MEAN_MOTION_DDOT":"0.0000000000000","TLE_LINE1":"1 51769U 22017B   22299.73405977  .00001172  00000-0  91703-4 0  9991","ECCENTRICITY":"0.00017830","CENTER_NAME":"EARTH","BSTAR":"0.00009170300000","REF_FRAME":"TEME","INCLINATION":"53.2184","PERIOD":"95.437","OBJECT_ID":"2022-017B","NORAD_CAT_ID":"51769","OBJECT_NAME":"STARLINK-3621","EPOCH":"2022-10-26T17:37:02.764128","CLASSIFICATION_TYPE":"U","SITE":"AFWTR","ARG_OF_PERICENTER":"53.1116","SEMIMAJOR_AXIS":"6917.875","TIME_SYSTEM":"UTC","RCS_SIZE":"LARGE","RA_OF_ASC_NODE":"100.6068","OBJECT_TYPE":"PAYLOAD","LAUNCH_DATE":"2022-02-25","REV_AT_EPOCH":"3692","MEAN_ANOMALY":"307.0040","PERIAPSIS":"538.507","APOAPSIS":"540.974","DECAY_DATE":null,"MEAN_MOTION":"15.08841648","MEAN_ELEMENT_THEORY":"SGP4","TLE_LINE2":"2 51769  53.2184 100.6068 0001783  53.1116 307.0040 15.08841648 36929"},{"SITE":"AFWTR","CLASSIFICATION_TYPE":"U","SEMIMAJOR_AXIS":"6917.914","ARG_OF_PERICENTER":"52.9368","RA_OF_ASC_NODE":"99.9876","RCS_SIZE":"LARGE","OBJECT_TYPE":"PAYLOAD","TIME_SYSTEM":"UTC","REV_AT_EPOCH":"3695","LAUNCH_DATE":"2022-02-25","PERIAPSIS":"538.646","MEAN_ANOMALY":"307.1774","APOAPSIS":"540.912","DECAY_DATE":null,"TLE_LINE2":"2 51770  53.2173  99.9876 0001638  52.9368 307.1774 15.08828914 36950","MEAN_ELEMENT_THEORY":"SGP4","MEAN_MOTION":"15.08828914","COUNTRY_CODE":"US","FILE":"3635100","ELEMENT_SET_NO":"999","EPHEMERIS_TYPE":"0","GP_ID":"216266316","MEAN_MOTION_DDOT":"0.0000000000000","MEAN_MOTION_DOT":"-0.00000338","ECCENTRICITY":"0.00016380","TLE_LINE1":"1 51770U 22017C   22299.87023090 -.00000338  00000-0 -31257-5 0  9994","PERIOD":"95.438","OBJECT_ID":"2022-017C","INCLINATION":"53.2173","REF_FRAME":"TEME","BSTAR":"-0.00000312570000","CENTER_NAME":"EARTH","EPOCH":"2022-10-26T20:53:07.949760","OBJECT_NAME":"STARLINK-3612","NORAD_CAT_ID":"51770"},{"ARG_OF_PERICENTER":"52.0875","SEMIMAJOR_AXIS":"6917.888","CLASSIFICATION_TYPE":"U","SITE":"AFWTR","LAUNCH_DATE":"2022-02-25","REV_AT_EPOCH":"3692","TIME_SYSTEM":"UTC","RA_OF_ASC_NODE":"100.6175","RCS_SIZE":"LARGE","OBJECT_TYPE":"PAYLOAD","MEAN_ANOMALY":"308.0278","PERIAPSIS":"538.519","MEAN_MOTION":"15.08837640","MEAN_ELEMENT_THEORY":"SGP4","TLE_LINE2":"2 51771  53.2183 100.6175 0001783  52.0875 308.0278 15.08837640 36921","APOAPSIS":"540.986","DECAY_DATE":null,"FILE":"3635100","COUNTRY_CODE":"US","ELEMENT_SET_NO":"999","TLE_LINE1":"1 51771U 22017D   22299.73134326  .00001372  00000-0  10428-3 0  9997","ECCENTRICITY":"0.00017830","MEAN_MOTION_DOT":"0.00001372","EPHEMERIS_TYPE":"0","GP_ID":"216266559","MEAN_MOTION_DDOT":"0.0000000000000","NORAD_CAT_ID":"51771","OBJECT_NAME":"STARLINK-3614","EPOCH":"2022-10-26T17:33:08.057664","CENTER_NAME":"EARTH","BSTAR":"0.00010428000000","REF_FRAME":"TEME","INCLINATION":"53.2183","PERIOD":"95.438","OBJECT_ID":"2022-017D"},{"TLE_LINE2":"2 51772  53.2177 100.0575 0001515  75.2190 284.8970 15.08841952 36935","MEAN_ELEMENT_THEORY":"SGP4","MEAN_MOTION":"15.08841952","DECAY_DATE":null,"APOAPSIS":"540.787","PERIAPSIS":"538.691","MEAN_ANOMALY":"284.8970","REV_AT_EPOCH":"3693","LAUNCH_DATE":"2022-02-25","RA_OF_ASC_NODE":"100.0575","RCS_SIZE":"LARGE","OBJECT_TYPE":"PAYLOAD","TIME_SYSTEM":"UTC","SEMIMAJOR_AXIS":"6917.874","ARG_OF_PERICENTER":"75.2190","SITE":"AFWTR","CLASSIFICATION_TYPE":"U","EPOCH":"2022-10-26T20:31:55.022016","OBJECT_NAME":"STARLINK-3623","NORAD_CAT_ID":"51772","PERIOD":"95.437","INCLINATION":"53.2177","OBJECT_ID":"2022-017E","REF_FRAME":"TEME","BSTAR":"0.00017087000000","CENTER_NAME":"EARTH","ECCENTRICITY":"0.00015150","TLE_LINE1":"1 51772U 22017E   22299.85549794  .00002433  00000-0  17087-3 0  9997","MEAN_MOTION_DDOT":"0.0000000000000","GP_ID":"216265815","EPHEMERIS_TYPE":"0","MEAN_MOTION_DOT":"0.00002433","ELEMENT_SET_NO":"999","COUNTRY_CODE":"US","FILE":"3635100"},{"COUNTRY_CODE":"US","FILE":"3635100","ELEMENT_SET_NO":"999","GP_ID":"216266065","MEAN_MOTION_DDOT":"0.0000000000000","EPHEMERIS_TYPE":"0","MEAN_MOTION_DOT":"0.00001418","ECCENTRICITY":"0.00017000","TLE_LINE1":"1 51773U 22017F   22299.73038092  .00001418  00000-0  10717-3 0  9994","PERIOD":"95.437","OBJECT_ID":"2022-017F","INCLINATION":"53.2173","BSTAR":"0.00010717000000","REF_FRAME":"TEME","CENTER_NAME":"EARTH","OBJECT_NAME":"STARLINK-3624","EPOCH":"2022-10-26T17:31:44.911488","NORAD_CAT_ID":"51773","SITE":"AFWTR","CLASSIFICATION_TYPE":"U","SEMIMAJOR_AXIS":"6917.868","ARG_OF_PERICENTER":"54.4757","RCS_SIZE":"LARGE","OBJECT_TYPE":"PAYLOAD","RA_OF_ASC_NODE":"100.6127","TIME_SYSTEM":"UTC","REV_AT_EPOCH":"3692","LAUNCH_DATE":"2022-02-25","PERIAPSIS":"538.557","MEAN_ANOMALY":"305.6394","APOAPSIS":"540.909","DECAY_DATE":null,"TLE_LINE2":"2 51773  53.2173 100.6127 0001700  54.4757 305.6394 15.08843933 36927","MEAN_ELEMENT_THEORY":"SGP4","MEAN_MOTION":"15.08843933"},{"ELEMENT_SET_NO":"999","FILE":"3635100","COUNTRY_CODE":"US","OBJECT_NAME":"STARLINK-3629","EPOCH":"2022-10-26T20:21:19.129248","NORAD_CAT_ID":"51774","BSTAR":"0.00011495000000","REF_FRAME":"TEME","INCLINATION":"53.2177","PERIOD":"95.437","OBJECT_ID":"2022-017G","CENTER_NAME":"EARTH","ECCENTRICITY":"0.00016360","TLE_LINE1":"1 51774U 22017G   22299.84813807  .00001542  00000-0  11495-3 0  9994","MEAN_MOTION_DOT":"0.00001542","EPHEMERIS_TYPE":"0","GP_ID":"216266817","MEAN_MOTION_DDOT":"0.0000000000000","LAUNCH_DATE":"2022-02-25","REV_AT_EPOCH":"3690","RA_OF_ASC_NODE":"100.0850","RCS_SIZE":"LARGE","OBJECT_TYPE":"PAYLOAD","TIME_SYSTEM":"UTC","ARG_OF_PERICENTER":"50.5583","SEMIMAJOR_AXIS":"6917.870","SITE":"AFWTR","CLASSIFICATION_TYPE":"U","MEAN_ELEMENT_THEORY":"SGP4","TLE_LINE2":"2 51774  53.2177 100.0850 0001636  50.5583 309.5554 15.08843236 36906","MEAN_MOTION":"15.08843236","APOAPSIS":"540.867","DECAY_DATE":null,"PERIAPSIS":"538.604","MEAN_ANOMALY":"309.5554"},{"MEAN_MOTION_DOT":"-0.00000606","GP_ID":"216267060","EPHEMERIS_TYPE":"0","MEAN_MOTION_DDOT":"0.0000000000000","TLE_LINE1":"1 51775U 22017H   22299.72670375 -.00000606  00000-0 -19959-4 0  9999","ECCENTRICITY":"0.00019790","CENTER_NAME":"EARTH","BSTAR":"-0.00001995900000","REF_FRAME":"TEME","PERIOD":"95.438","INCLINATION":"53.2184","OBJECT_ID":"2022-017H","NORAD_CAT_ID":"51775","EPOCH":"2022-10-26T17:26:27.204000","OBJECT_NAME":"STARLINK-3620","FILE":"3635100","COUNTRY_CODE":"US","ELEMENT_SET_NO":"999","MEAN_ANOMALY":"311.4212","PERIAPSIS":"538.393","DECAY_DATE":null,"APOAPSIS":"541.131","MEAN_MOTION":"15.08834428","MEAN_ELEMENT_THEORY":"SGP4","TLE_LINE2":"2 51775  53.2184 100.6416 0001979  48.6950 311.4212 15.08834428 36923","CLASSIFICATION_TYPE":"U","SITE":"AFWTR","ARG_OF_PERICENTER":"48.6950","SEMIMAJOR_AXIS":"6917.897","TIME_SYSTEM":"UTC","RCS_SIZE":"LARGE","RA_OF_ASC_NODE":"100.6416","OBJECT_TYPE":"PAYLOAD","LAUNCH_DATE":"2022-02-25","REV_AT_EPOCH":"3692"}];
